IRIDIUM 921 [-]         
1 24873U 97034E   24073.23292278  .00018924  00000+0  58971-3 0  9994
2 24873  86.3870 335.3875 0000683 231.0104 129.1085 15.33140414460451
IRIDIUM 26 [-]          
1 24903U 97043A   24073.60692722  .00000420  00000+0  13714-3 0  9995
2 24903  86.3938 303.8932 0002105  92.3838 267.7600 14.36237961390615
IRIDIUM 22 [-]          
1 24907U 97043E   24073.37964421  .00000389  00000+0  12947-3 0  9992
2 24907  86.3948 307.1505 0002063  85.9333 274.2099 14.35133162390661
DUMMY MASS 1 [-]        
1 24925U 97048A   24073.51456769  .00000637  00000+0  69531-4 0  9992
2 24925  86.3399 348.1953 0006427   0.3823 359.7405 14.86089934436693
DUMMY MASS 2 [-]        
1 24926U 97048B   24073.46832706  .00000576  00000+0  63015-4 0  9999
2 24926  86.3400 349.7415 0007672   9.0276 351.1085 14.85848656436477
IRIDIUM 29 [-]          
1 24944U 97051A   24073.48244811  .00000503  00000+0  16776-3 0  9990
2 24944  86.4001 337.0367 0002022  79.3569 280.7855 14.35591842387159
IRIDIUM 33 [-]          
1 24946U 97051C   24073.83918725  .00000326  00000+0  10913-3 0  9993
2 24946  86.3914 336.1466 0009322 130.1791 230.0222 14.34283378386758
IRIDIUM 28 [-]          
1 24948U 97051E   24073.47997703  .00000504  00000+0  16500-3 0  9994
2 24948  86.4003 334.8189 0002335  95.8318 264.3145 14.36540544387686
